STARLINK-31152          
1 58734U 24005G   26068.46665831 -.00003519  00000+0 -12158-3 0  9998
2 58734  42.9985 220.6599 0001346 280.6789  79.3910 15.26736091120410
FLOCK 4G-11             
1 62629U 25009W   26068.45629261  .00012672  00000+0  47740-3 0  9990
2 62629  97.3964 150.6183 0001611 333.5407  26.5750 15.27220677 63680
